NORAD_CAT_ID,OBJECT_NAME,OBJECT_TYPE,EPOCH,MEAN_MOTION,ECCENTRICITY,INCLINATION,RA_OF_ASC_NODE,ARG_OF_PERICENTER,MEAN_ANOMALY,BSTAR,MEAN_MOTION_DOT,MEAN_MOTION_DDOT,TLE_LINE0,TLE_LINE1,TLE_LINE2,SEMIMAJOR_AXIS,PERIOD,APOGEE,PERIGEE,DECAYED
51143.0,STARLINK-3184,PAYLOAD,2023-10-27 04:29:14,15.08844981,0.0001403,53.2163,230.0266,93.914,266.2012,0.00024817,3.664e-05,0.0,0 STARLINK-3184,1 51143U 22005AR  23300.18697514  .00003664  00000-0  24817-3 0  9996,2 51143  53.2163 230.0266 0001403  93.9140 266.2012 15.08844981 99194,6917.865,95.437,540.701,538.76,0.0
51143.0,STARLINK-3184,PAYLOAD,2023-10-27 12:26:10,15.0882208,0.0001289,53.2161,228.5394,106.4063,253.7071,4.8745e-05,4.88e-06,0.0,0 STARLINK-3184,1 51143U 22005AR  23300.51818102  .00000488  00000-0  48745-4 0  9999,2 51143  53.2161 228.5394 0001289 106.4063 253.7071 15.08822080 99240,6917.935,95.439,540.692,538.908,0.0
51143.0,STARLINK-3184,PAYLOAD,2023-10-28 12:16:59,15.08824855,0.0001543,53.2164,224.0776,95.7781,264.3387,0.00058611,9.048e-05,0.0,0 STARLINK-3184,1 51143U 22005AR  23301.51179875  .00009048  00000-0  58611-3 0  9990,2 51143  53.2164 224.0776 0001543  95.7781 264.3387 15.08824855 98281,6917.927,95.439,540.859,538.724,0.0
51143.0,STARLINK-3184,PAYLOAD,2023-10-28 18:38:32,15.08830062,0.0001613,53.2166,222.8907,89.7155,270.4022,0.00052965,8.149e-05,0.0,0 STARLINK-3184,1 51143U 22005AR  23301.77676143  .00008149  00000-0  52965-3 0  9995,2 51143  53.2166 222.8907 0001613  89.7155 270.4022 15.08830062 99430,6917.911,95.438,540.892,538.66,0.0
51143.0,STARLINK-3184,PAYLOAD,2023-10-29 02:35:27,15.08850178,0.0001459,53.2163,221.4022,102.2403,257.8752,0.0011122,0.00017462,0.0,0 STARLINK-3184,1 51143U 22005AR  23302.10795858  .00017462  00000-0  11122-2 0  9995,2 51143  53.2163 221.4022 0001459 102.2403 257.8752 15.08850178 99489,6917.849,95.437,540.724,538.705,0.0
51143.0,STARLINK-3184,PAYLOAD,2023-10-29 12:07:45,15.0888718,0.000147,53.2168,219.6186,76.6895,283.4261,0.0018401,0.00029157,0.0,0 STARLINK-3184,1 51143U 22005AR  23302.50538642  .00029157  00000-0  18401-2 0  9996,2 51143  53.2168 219.6186 0001470  76.6895 283.4261 15.08887180 99546,6917.736,95.435,540.618,538.584,0.0
51143.0,STARLINK-3184,PAYLOAD,2023-10-29 18:29:16,15.08904421,0.0001408,53.2177,218.4277,74.3076,285.8071,0.0016527,0.00026159,0.0,0 STARLINK-3184,1 51143U 22005AR  23302.77033413  .00026159  00000-0  16527-2 0  9997,2 51143  53.2177 218.4277 0001408  74.3076 285.8071 15.08904421 98475,6917.683,95.433,540.522,538.574,0.0
51143.0,STARLINK-3184,PAYLOAD,2023-10-30 00:50:50,15.08834904,0.0002029,53.217,217.2416,58.1575,301.9614,-0.001171,-0.00018874,0.0,0 STARLINK-3184,1 51143U 22005AR  23303.03530654 -.00018874  00000-0 -11710-2 0  9992,2 51143  53.2170 217.2416 0002029  58.1575 301.9614 15.08834904 99623,6917.896,95.438,541.165,538.357,0.0
51143.0,STARLINK-3184,PAYLOAD,2023-10-30 21:30:52,15.0881542,0.0001567,53.2167,213.3751,72.0654,288.0509,0.0002541,3.756e-05,0.0,0 STARLINK-3184,1 51143U 22005AR  23303.89643910  .00003756  00000-0  25410-3 0  9990,2 51143  53.2167 213.3751 0001567  72.0654 288.0509 15.08815420 98648,6917.956,95.439,540.905,538.736,0.0
51143.0,STARLINK-3184,PAYLOAD,2023-10-31 21:21:39,15.08847004,0.0001458,53.2166,208.9137,87.8873,272.2286,0.00097157,0.00015211,0.0,0 STARLINK-3184,1 51143U 22005AR  23304.89004448  .00015211  00000-0  97157-3 0  9994,2 51143  53.2166 208.9137 0001458  87.8873 272.2286 15.08847004 99901,6917.859,95.437,540.733,538.715,0.0
51143.0,STARLINK-3184,PAYLOAD,2023-11-01 10:04:44,15.08854111,0.0001412,53.216,206.5344,89.5464,270.569,0.00060445,9.349e-05,0.0,0 STARLINK-3184,1 51143U 22005AR  23305.41996034  .00009349  00000-0  60445-3 0  9999,2 51143  53.2160 206.5344 0001412  89.5464 270.5690 15.08854111 98876,6917.837,95.437,540.679,538.725,0.0
51143.0,STARLINK-3184,PAYLOAD,2023-11-01 21:12:26,15.08852113,0.0001631,53.2167,204.4531,99.3011,260.8165,0.00043522,6.648e-05,0.0,0 STARLINK-3184,1 51143U 22005AR  23305.88363978  .00006648  00000-0  43522-3 0  9991,2 51143  53.2167 204.4531 0001631  99.3011 260.8165 15.08852113100051,6917.843,95.437,540.837,538.58,0.0
51143.0,STARLINK-3184,PAYLOAD,2023-11-01 22:47:49,15.08853797,0.0001602,53.2168,204.1557,98.7425,261.3749,0.00052323,8.052e-05,0.0,0 STARLINK-3184,1 51143U 22005AR  23305.94987923  .00008052  00000-0  52323-3 0  9990,2 51143  53.2168 204.1557 0001602  98.7425 261.3749 15.08853797 98955,6917.838,95.437,540.811,538.595,0.0
51143.0,STARLINK-3184,PAYLOAD,2023-11-02 21:03:13,15.0884613,0.000119,53.2162,199.9963,80.2363,279.8764,0.00088039,0.00013754,0.0,0 STARLINK-3184,1 51143U 22005AR  23306.87724415  .00013754  00000-0  88039-3 0  9996,2 51143  53.2162 199.9963 0001190  80.2363 279.8764 15.08846130100206,6917.862,95.437,540.55,538.903,0.0
51143.0,STARLINK-3184,PAYLOAD,2023-11-02 22:38:36,15.08847766,0.0001276,53.2162,199.6986,85.3299,274.7839,0.00064427,9.983e-05,0.0,0 STARLINK-3184,1 51143U 22005AR  23306.94348338  .00009983  00000-0  64427-3 0  9994,2 51143  53.2162 199.6986 0001276  85.3299 274.7839 15.08847766 99106,6917.857,95.437,540.604,538.839,0.0
51143.0,STARLINK-3184,PAYLOAD,2023-11-03 09:46:18,15.08846862,0.0001466,53.2161,197.614,85.7806,274.3354,0.00043072,6.575e-05,0.0,0 STARLINK-3184,1 51143U 22005AR  23307.40716218  .00006575  00000-0  43072-3 0  9999,2 51143  53.2161 197.6140 0001466  85.7806 274.3354 15.08846862100280,6917.859,95.437,540.739,538.71,0.0
51143.0,STARLINK-3184,PAYLOAD,2023-11-03 20:54:00,15.08834604,0.0001626,53.2169,195.5357,97.4493,262.6684,0.00029877,4.469e-05,0.0,0 STARLINK-3184,1 51143U 22005AR  23307.87084461  .00004469  00000-0  29877-3 0  9995,2 51143  53.2169 195.5357 0001626  97.4493 262.6684 15.08834604100350,6917.897,95.438,540.887,538.637,0.0
51143.0,STARLINK-3184,PAYLOAD,2023-11-03 22:29:23,15.08839818,0.0001641,53.2169,195.2387,93.64,266.478,0.00010135,1.325e-05,0.0,0 STARLINK-3184,1 51143U 22005AR  23307.93708323  .00001325  00000-0  10135-3 0  9997,2 51143  53.2169 195.2387 0001641  93.6400 266.4780 15.08839818 99250,6917.881,95.438,540.881,538.611,0.0
51143.0,STARLINK-3184,PAYLOAD,2023-11-04 03:15:33,15.08847562,0.0001558,53.2161,194.3418,83.16,276.9569,0.00021821,3.187e-05,0.0,0 STARLINK-3184,1 51143U 22005AR  23308.13579984  .00003187  00000-0  21821-3 0  9991,2 51143  53.2161 194.3418 0001558  83.1600 276.9569 15.08847562100394,6917.857,95.437,540.8,538.644,0.0
51143.0,STARLINK-3184,PAYLOAD,2023-11-04 20:44:47,15.08841795,0.0001808,53.2162,191.068,120.0279,240.0892,0.00010823,1.435e-05,0.0,0 STARLINK-3184,1 51143U 22005AR  23308.86444172  .00001435  00000-0  10823-3 0  9995,2 51143  53.2162 191.0680 0001808 120.0279 240.0892 15.08841795100507,6917.875,95.437,540.991,538.489,0.0
51143.0,STARLINK-3184,PAYLOAD,2023-11-04 22:20:10,15.08845939,0.0001584,53.2159,190.7706,93.5001,266.6172,0.00017651,2.523e-05,0.0,0 STARLINK-3184,1 51143U 22005AR  23308.93068262  .00002523  00000-0  17651-3 0  9990,2 51143  53.2159 190.7706 0001584  93.5001 266.6172 15.08845939 99401,6917.862,95.437,540.823,538.631,0.0
51143.0,STARLINK-3184,PAYLOAD,2023-11-05 09:27:52,15.08852747,0.0001521,53.2163,188.6901,99.5261,260.5903,0.00035523,5.372e-05,0.0,0 STARLINK-3184,1 51143U 22005AR  23309.39435876  .00005372  00000-0  35523-3 0  9993,2 51143  53.2163 188.6901 0001521  99.5261 260.5903 15.08852747 99471,6917.841,95.437,540.759,538.654,0.0
51143.0,STARLINK-3184,PAYLOAD,2023-11-05 22:10:56,15.08868671,0.0001086,53.2173,186.3112,110.7681,249.3427,0.0005602,8.646e-05,0.0,0 STARLINK-3184,1 51143U 22005AR  23309.92426557  .00008646  00000-0  56020-3 0  9990,2 51143  53.2173 186.3112 0001086 110.7681 249.3427 15.08868671 99557,6917.793,95.436,540.409,538.906,0.0
51143.0,STARLINK-3184,PAYLOAD,2023-11-06 01:21:42,15.08893759,0.0001773,53.217,185.7161,103.5528,256.5662,0.0010826,0.00017009,0.0,0 STARLINK-3184,1 51143U 22005AR  23310.05673782  .00017009  00000-0  10826-2 0  9996,2 51143  53.2170 185.7161 0001773 103.5528 256.5662 15.08893759100687,6917.716,95.434,540.808,538.355,0.0
51143.0,STARLINK-3184,PAYLOAD,2023-11-06 09:18:39,15.08844008,0.0002309,53.2172,184.2284,90.9128,269.2129,-7.6519e-05,-1.506e-05,0.0,0 STARLINK-3184,1 51143U 22005AR  23310.38795248 -.00001506  00000-0 -76519-4 0  9994,2 51143  53.2172 184.2284 0002309  90.9128 269.2129 15.08844008100738,6917.868,95.437,541.33,538.136,0.0
51143.0,STARLINK-3184,PAYLOAD,2023-11-06 22:01:44,15.08824151,0.0001581,53.2163,181.8507,90.3927,269.7246,-0.00048141,-7.938e-05,0.0,0 STARLINK-3184,1 51143U 22005AR  23310.91787830 -.00007938  00000-0 -48141-3 0  9995,2 51143  53.2163 181.8507 0001581  90.3927 269.7246 15.08824151 99707,6917.929,95.439,540.888,538.7,0.0
51143.0,STARLINK-3184,PAYLOAD,2023-11-07 09:09:27,15.08820357,0.0001097,53.2167,179.7715,95.0173,265.0944,-0.00032262,-5.416e-05,0.0,0 STARLINK-3184,1 51143U 22005AR  23311.38156280 -.00005416  00000-0 -32262-3 0  9992,2 51143  53.2167 179.7715 0001097  95.0173 265.0944 15.08820357 99770,6917.94,95.439,540.564,539.047,0.0
51143.0,STARLINK-3184,PAYLOAD,2023-11-07 18:41:46,15.08826168,0.000164,53.2169,177.9862,84.5565,275.5614,5.2452e-05,5.47e-06,0.0,0 STARLINK-3184,1 51143U 22005AR  23311.77900784  .00000547  00000-0  52452-4 0  9993,2 51143  53.2169 177.9862 0001640  84.5565 275.5614 15.08826168100945,6917.923,95.438,540.922,538.653,0.0
51143.0,STARLINK-3184,PAYLOAD,2023-11-08 01:03:18,15.08833634,0.0001469,53.2161,176.7981,81.6336,278.4822,0.0003442,5.193e-05,0.0,0 STARLINK-3184,1 51143U 22005AR  23312.04396917  .00005193  00000-0  34420-3 0  9997,2 51143  53.2161 176.7981 0001469  81.6336 278.4822 15.08833634 99877,6917.9,95.438,540.781,538.749,0.0
51143.0,STARLINK-3184,PAYLOAD,2023-11-08 21:43:19,15.08839097,0.0001403,53.2162,172.9331,64.4952,295.6185,0.00048559,7.448e-05,0.0,0 STARLINK-3184,1 51143U 22005AR  23312.90509230  .00007448  00000-0  48559-3 0  9999,2 51143  53.2162 172.9331 0001403  64.4952 295.6185 15.08839097100006,6917.883,95.438,540.719,538.778,0.0
